     2.10           G: GLONASS NAV DATA                     RINEX VERSION / TYPE
teqc  2015Jun23                         20210424 02:25:46UTCPGM / RUN BY / DATE
Linux 2.4.21-27.ELsmp|Opteron|gcc -static|Linux x86_64|=+   COMMENT
  2021     3    31    9.313225746155D-09                    CORR TO SYSTEM TIME
                                                            END OF HEADER
19 21  4  1 17 15  0.0-1.380732282996D-04-9.094947017729D-13 6.120000000000D+04
    2.883847656250D+02-5.908021926880D-01-9.313225746155D-10 0.000000000000D+00
    1.979898486328D+04 2.133697509766D+00-0.000000000000D+00 3.000000000000D+00
    1.608325830078D+04-2.615623474121D+00-1.862645149231D-09 0.000000000000D+00
15 21  4  1 17 45  0.0 1.046033576131D-04-0.000000000000D+00 6.300000000000D+04
   -1.257048193359D+04-2.258815765381D+00-3.725290298462D-09 0.000000000000D+00
    1.336194140625D+04 8.949069976807D-01 2.793967723846D-09 0.000000000000D+00
   -1.770655615234D+04 2.277289390564D+00-0.000000000000D+00 0.000000000000D+00
 4 21  4  1 17 45  0.0 8.048675954342D-05 1.818989403546D-12 6.300000000000D+04
   -4.077587890625D+01-2.198023796082D+00 0.000000000000D+00 0.000000000000D+00
    1.344806689453D+04-1.990612983704D+00-0.000000000000D+00 6.000000000000D+00
    2.170701123047D+04 1.230278015137D+00-2.793967723846D-09 0.000000000000D+00
 5 21  4  1 17 45  0.0 6.922334432602D-05 9.094947017729D-13 6.300000000000D+04
    1.415588378906D+04-9.371004104614D-01-0.000000000000D+00 0.000000000000D+00
    1.865602685547D+04-1.036435127258D+00-9.313225746155D-10 1.000000000000D+00
    1.015223925781D+04 3.213735580444D+00-9.313225746155D-10 0.000000000000D+00
14 21  4  1 17 45  0.0 6.266497075558D-05 0.000000000000D+00 6.300000000000D+04
   -2.354822705078D+04-2.570247650146D-01-2.793967723846D-09 0.000000000000D+00
    9.533646972656D+03 2.420530319214D-01 3.725290298462D-09-7.000000000000D+00
   -2.353671875000D+03 3.540900230408D+00-2.793967723846D-09 0.000000000000D+00
17 21  4  1 17 45  0.0 4.127826541662D-04 2.728484105319D-12 6.300000000000D+04
   -1.131368603516D+04 6.295585632324D-01-3.725290298462D-09 0.000000000000D+00
    1.230379443359D+04-2.568745613098D+00 2.793967723846D-09 4.000000000000D+00
   -1.924788867188D+04-2.013868331909D+00 0.000000000000D+00 0.000000000000D+00
18 21  4  1 17 45  0.0 7.176771759987D-05 9.094947017729D-13 6.300000000000D+04
   -7.224784667969D+03 3.778438568115D-01-3.725290298462D-09 0.000000000000D+00
    2.391950439453D+04-6.623554229736D-01 1.862645149231D-09-3.000000000000D+00
   -5.270272460938D+03-3.508740425110D+00-9.313225746155D-10 0.000000000000D+00
19 21  4  1 17 45  0.0-1.380760222673D-04-9.094947017729D-13 6.300000000000D+04
   -3.167241210938D+02-1.060867309570D-01-1.862645149231D-09 0.000000000000D+00
    2.310248193359D+04 1.497005462646D+00 0.000000000000D+00 3.000000000000D+00
    1.081431250000D+04-3.200758934021D+00-1.862645149231D-09 0.000000000000D+00
15 21  4  1 18 15  0.0 1.046024262905D-04-0.000000000000D+00 6.480000000000D+04
   -1.599903564453D+04-1.530453681946D+00-3.725290298462D-09 0.000000000000D+00
    1.502947998047D+04 9.165754318237D-01 3.725290298462D-09 0.000000000000D+00
   -1.297510009766D+04 2.945685386658D+00-9.313225746155D-10 0.000000000000D+00
 5 21  4  1 18 15  0.0 6.922520697117D-05 9.094947017729D-13 6.480000000000D+04
    1.179217333984D+04-1.686813354492D+00-0.000000000000D+00 0.000000000000D+00
    1.652770410156D+04-1.283498764038D+00-9.313225746155D-10 1.000000000000D+00
    1.547064355469D+04 2.657327651978D+00-1.862645149231D-09 0.000000000000D+00
14 21  4  1 18 15  0.0 6.266590207815D-05 0.000000000000D+00 6.480000000000D+04
   -2.326459814453D+04 5.544719696045D-01-9.313225746155D-10 0.000000000000D+00
    9.672550781250D+03-1.240997314453D-01 2.793967723846D-09-7.000000000000D+00
    4.028585937500D+03 3.504476547241D+00-2.793967723846D-09 0.000000000000D+00
17 21  4  1 18 15  0.0 4.127873107791D-04 2.728484105319D-12 6.480000000000D+04
   -1.049478222656D+04 2.558870315552D-01-2.793967723846D-09 0.000000000000D+00
    7.233555664062D+03-3.019863128662D+00 3.725290298462D-09 4.000000000000D+00
   -2.208065771484D+04-1.113250732422D+00 9.313225746155D-10 0.000000000000D+00
18 21  4  1 18 15  0.0 7.177051156759D-05 9.094947017729D-13 6.480000000000D+04
   -6.560135742188D+03 3.187808990479D-01-3.725290298462D-09 0.000000000000D+00
    2.193198193359D+04-1.532397270203D+00 2.793967723846D-09-3.000000000000D+00
   -1.130149462891D+04-3.149181365967D+00-9.313225746155D-10 0.000000000000D+00
19 21  4  1 18 15  0.0-1.380788162351D-04-9.094947017729D-13 6.480000000000D+04
   -2.066293945312D+02 1.913328170776D-01-2.793967723846D-09 0.000000000000D+00
    2.507114648438D+04 6.662721633911D-01 9.313225746155D-10 3.000000000000D+00
    4.709357421875D+03-3.538486480713D+00-1.862645149231D-09 0.000000000000D+00
16 21  4  1 18 15  0.0-1.326110213995D-05-0.000000000000D+00 6.549000000000D+04
    2.212099609375D+03-2.730544090271D+00-2.793967723846D-09 0.000000000000D+00
    1.136418359375D+04 1.482307434082D+00 1.862645149231D-09-1.000000000000D+00
   -2.274535058594D+04 4.877662658691D-01 9.313225746155D-10 0.000000000000D+00
20 21  4  1 18 15  0.0-4.645716398954D-05-0.000000000000D+00 6.648000000000D+04
    7.993660156250D+03-1.410303115845D-01 0.000000000000D+00 0.000000000000D+00
    1.274730224609D+04 2.824337005615D+00-9.313225746155D-10 2.000000000000D+00
    2.062091796875D+04-1.687285423279D+00-1.862645149231D-09 0.000000000000D+00
15 21  4  1 18 45  0.0 1.046024262905D-04-0.000000000000D+00 6.660000000000D+04
   -1.804120312500D+04-7.374629974365D-01-1.862645149231D-09 0.000000000000D+00
    1.650689501953D+04 6.819086074829D-01 4.656612873077D-09 0.000000000000D+00
   -7.239324707031D+03 3.385953903198D+00-1.862645149231D-09 0.000000000000D+00
 5 21  4  1 18 45  0.0 6.922706961632D-05 9.094947017729D-13 6.660000000000D+04
    8.126695800781D+03-2.364547729492D+00-0.000000000000D+00 0.000000000000D+00
    1.419605224609D+04-1.264398574829D+00-9.313225746155D-10 1.000000000000D+00
    1.959533642578D+04 1.895977973938D+00-1.862645149231D-09 0.000000000000D+00
14 21  4  1 18 45  0.0 6.266683340073D-05 0.000000000000D+00 6.660000000000D+04
   -2.164569824219D+04 1.210942268372D+00 0.000000000000D+00 0.000000000000D+00
    8.974442382812D+03-6.764564514160D-01 1.862645149231D-09-7.000000000000D+00
    1.009957226562D+04 3.197303771973D+00-2.793967723846D-09 0.000000000000D+00
16 21  4  1 18 45  0.0-1.326203346252D-05-0.000000000000D+00 6.660000000000D+04
   -2.348978027344D+03-2.301373481750D+00-2.793967723846D-09 0.000000000000D+00
    1.427597070312D+04 1.717592239380D+00 3.725290298462D-09-1.000000000000D+00
   -2.100032275391D+04 1.438965797424D+00 9.313225746155D-10 0.000000000000D+00
18 21  4  1 18 45  0.0 7.177330553532D-05 9.094947017729D-13 6.660000000000D+04
   -6.216361816406D+03 2.916812896729D-02-2.793967723846D-09 0.000000000000D+00
    1.848602001953D+04-2.264546394348D+00 3.725290298462D-09-3.000000000000D+00
   -1.646097558594D+04-2.546337127686D+00-0.000000000000D+00 0.000000000000D+00
19 21  4  1 18 45  0.0-1.380816102028D-04-9.094947017729D-13 6.660000000000D+04
    2.257065429688D+02 2.463312149048D-01-2.793967723846D-09 0.000000000000D+00
    2.544860595703D+04-2.514114379883D-01 2.793967723846D-09 3.000000000000D+00
   -1.759680175781D+03-3.602663993835D+00-1.862645149231D-09 0.000000000000D+00
20 21  4  1 18 45  0.0-4.645809531212D-05-0.000000000000D+00 6.660000000000D+04
    8.129925292969D+03 2.685222625732D-01-0.000000000000D+00 0.000000000000D+00
    1.739543017578D+04 2.296283721924D+00-0.000000000000D+00 2.000000000000D+00
    1.682774023438D+04-2.499994277954D+00-1.862645149231D-09 0.000000000000D+00
20 21  4  1 19 15  0.0-4.645902663469D-05-0.000000000000D+00 6.840000000000D+04
    8.848746582031D+03 4.932298660278D-01-9.313225746155D-10 0.000000000000D+00
    2.087994482422D+04 1.546058654785D+00 9.313225746155D-10 2.000000000000D+00
    1.173705273438D+04-3.119676589966D+00-1.862645149231D-09 0.000000000000D+00
 5 21  4  1 19 15  0.0 6.922800093889D-05 9.094947017729D-13 6.840000000000D+04
    3.387469726562D+03-2.863683700562D+00 0.000000000000D+00 0.000000000000D+00
    1.211574462891D+04-1.013494491577D+00-9.313225746155D-10 1.000000000000D+00
    2.220816308594D+04 9.883356094360D-01-2.793967723846D-09 0.000000000000D+00
14 21  4  1 19 15  0.0 6.266776472330D-05 0.000000000000D+00 6.840000000000D+04
   -1.904564550781D+04 1.634684562683D+00 9.313225746155D-10 0.000000000000D+00
    7.175918457031D+03-1.330396652222D+00 9.313225746155D-10-7.000000000000D+00
    1.539033398438D+04 2.643195152283D+00-2.793967723846D-09 0.000000000000D+00
15 21  4  1 19 15  0.0 1.046014949679D-04-0.000000000000D+00 6.840000000000D+04
   -1.868395312500D+04 5.853652954102D-03-9.313225746155D-10 0.000000000000D+00
    1.733708691406D+04 2.032785415649D-01 3.725290298462D-09 0.000000000000D+00
   -9.433447265625D+02 3.564114570618D+00-2.793967723846D-09 0.000000000000D+00
16 21  4  1 19 15  0.0-1.326296478510D-05-0.000000000000D+00 6.840000000000D+04
   -5.970293945312D+03-1.702103614807D+00-2.793967723846D-09 0.000000000000D+00
    1.740182275391D+04 1.711380004883D+00 4.656612873077D-09-1.000000000000D+00
   -1.763070166016D+04 2.281047821045D+00-0.000000000000D+00 0.000000000000D+00
19 21  4  1 19 15  0.0-1.380844041705D-04-9.094947017729D-13 6.840000000000D+04
    5.275747070312D+02 4.859828948975D-02-2.793967723846D-09 0.000000000000D+00
    2.418662255859D+04-1.135018348694D+00 3.725290298462D-09 3.000000000000D+00
   -8.092679687500D+03-3.388314247131D+00-9.313225746155D-10 0.000000000000D+00
20 21  4  1 19 45  0.0-4.645995795727D-05-0.000000000000D+00 7.020000000000D+04
    9.758437011719D+03 4.742336273193D-01-1.862645149231D-09 0.000000000000D+00
    2.288866552734D+04 6.754474639893D-01 1.862645149231D-09 2.000000000000D+00
    5.741609375000D+03-3.498800277710D+00-1.862645149231D-09 0.000000000000D+00
